{"type": "FeatureCollection", "features": [ {"type": "Feature", "properties": {"norad_id": 33905, "name": "COSMOS 2251 DEB", "group": "cosmos-2251-debris", "lat": 60.46742911499091, "lon": 102.5018911553097, "alt_km": 765.290405139941, "timestamp": "2025-12-14T14:39:29.762040+00:00", "meta": {"OBJECT_NAME": "COSMOS 2251 DEB", "OBJECT_ID": "1993-036DJ", "EPOCH": "2025-12-13T23:19:56.540352", "MEAN_MOTION": 14.35392867, "ECCENTRICITY": 0.00587793, "INCLINATION": 73.8872, "RA_OF_ASC_NODE": 314.3632, "ARG_OF_PERICENTER": 203.6501, "MEAN_ANOMALY": 213.5669, "EPHEMERIS_TYPE": 0, "CLASSIFICATION_TYPE": "U", "NORAD_CAT_ID": 33905, "ELEMENT_SET_NO": 999, "REV_AT_EPOCH": 87705, "BSTAR": 0.00083915049, "MEAN_MOTION_DOT": 2.43e-05, "MEAN_MOTION_DDOT": 0}, "tle": {"line1": "1 33905U 93036DJ  25347.97218218  .00002430  00000+0  83915-3 0  9997", "line2": "2 33905  73.8872 314.3632 0058779 203.6501 213.5669 14.35392867877059"}}, "geometry": {"type": "Point", "coordinates": [102.5018911553097, 60.46742911499091]}}, {"type": "Feature", "properties": {"norad_id": 33906, "name": "COSMOS 2251 DEB", "group": "cosmos-2251-debris", "lat": 31.653061717067924, "lon": 127.75100172847628, "alt_km": 724.6615306737285, "timestamp": "2025-12-14T14:39:29.762050+00:00", "meta": {"OBJECT_NAME": "COSMOS 2251 DEB", "OBJECT_ID": "1993-036DK", "EPOCH": "2025-12-13T23:24:42.934752", "MEAN_MOTION": 14.57123256, "ECCENTRICITY": 0.00366705, "INCLINATION": 74.0304, "RA_OF_ASC_NODE": 319.1256, "ARG_OF_PERICENTER": 348.3099, "MEAN_ANOMALY": 67.3502, "EPHEMERIS_TYPE": 0, "CLASSIFICATION_TYPE": "U", "NORAD_CAT_ID": 33906, "ELEMENT_SET_NO": 999, "REV_AT_EPOCH": 88026, "BSTAR": 0.002316531, "MEAN_MOTION_DOT": 0.00010526, "MEAN_MOTION_DDOT": 0}, "tle": {"line1": "1 33906U 93036DK  25347.97549693  .00010526  00000+0  23165-2 0  9997", "line2": "2 33906  74.0304 319.1256 0036670 348.3099  67.3502 14.57123256880269"}}, "geometry": {"type": "Point", "coordinates": [127.75100172847628, 31.653061717067924]}}, {"type": "Feature", "properties": {"norad_id": 33907, "name": "COSMOS 2251 DEB", "group": "cosmos-2251-debris", "lat": -56.792054088045305, "lon": 4.385696777261888, "alt_km": 862.7151215757231, "timestamp": "2025-12-14T14:39:29.762060+00:00", "meta": {"OBJECT_NAME": "COSMOS 2251 DEB", "OBJECT_ID": "1993-036DL", "EPOCH": "2025-12-13T21:16:26.070240", "MEAN_MOTION": 14.30520572, "ECCENTRICITY": 0.01120658, "INCLINATION": 74.0708, "RA_OF_ASC_NODE": 31.5686, "ARG_OF_PERICENTER": 86.7179, "MEAN_ANOMALY": 84.7829, "EPHEMERIS_TYPE": 0, "CLASSIFICATION_TYPE": "U", "NORAD_CAT_ID": 33907, "ELEMENT_SET_NO": 999, "REV_AT_EPOCH": 86596, "BSTAR": 0.0018329151, "MEAN_MOTION_DOT": 5.094e-05, "MEAN_MOTION_DDOT": 0}, "tle": {"line1": "1 33907U 93036DL  25347.88641285  .00005094  00000+0  18329-2 0  9998", "line2": "2 33907  74.0708  31.5686 0112065  86.7179  84.7829 14.30520572865963"}}, "geometry": {"type": "Point", "coordinates": [4.385696777261888, -56.792054088045305]}}, {"type": "Feature", "properties": {"norad_id": 33908, "name": "COSMOS 2251 DEB", "group": "cosmos-2251-debris", "lat": 7.332388177524342, "lon": 20.307839141951447, "alt_km": 771.2901165050971, "timestamp": "2025-12-14T14:39:29.762070+00:00", "meta": {"OBJECT_NAME": "COSMOS 2251 DEB", "OBJECT_ID": "1993-036DM", "EPOCH": "2025-12-13T15:38:45.916512", "MEAN_MOTION": 14.07350798, "ECCENTRICITY": 0.02230241, "INCLINATION": 73.8379, "RA_OF_ASC_NODE": 204.1471, "ARG_OF_PERICENTER": 227.5118, "MEAN_ANOMALY": 130.6986, "EPHEMERIS_TYPE": 0, "CLASSIFICATION_TYPE": "U", "NORAD_CAT_ID": 33908, "ELEMENT_SET_NO": 999, "REV_AT_EPOCH": 85486, "BSTAR": 0.0023881861, "MEAN_MOTION_DOT": 5.011e-05, "MEAN_MOTION_DDOT": 0}, "tle": {"line1": "1 33908U 93036DM  25347.65192033  .00005011  00000+0  23882-2 0  9995", "line2": "2 33908  73.8379 204.1471 0223024 227.5118 130.6986 14.07350798854868"}}, "geometry": {"type": "Point", "coordinates": [20.307839141951447, 7.332388177524342]}}, {"type": "Feature", "properties": {"norad_id": 33911, "name": "COSMOS 2251 DEB", "group": "cosmos-2251-debris", "lat": 35.77571064451588, "lon": 170.07088185926042, "alt_km": 637.6416066614056, "timestamp": "2025-12-14T14:39:29.762080+00:00", "meta": {"OBJECT_NAME": "COSMOS 2251 DEB", "OBJECT_ID": "1993-036DQ", "EPOCH": "2025-12-13T16:15:57.720096", "MEAN_MOTION": 14.74887314, "ECCENTRICITY": 0.00141486, "INCLINATION": 74.0904, "RA_OF_ASC_NODE": 160.0265, "ARG_OF_PERICENTER": 99.4996, "MEAN_ANOMALY": 26.2897, "EPHEMERIS_TYPE": 0, "CLASSIFICATION_TYPE": "U", "NORAD_CAT_ID": 33911, "ELEMENT_SET_NO": 999, "REV_AT_EPOCH": 88658, "BSTAR": 0.0022738194, "MEAN_MOTION_DOT": 0.00015285, "MEAN_MOTION_DDOT": 0}, "tle": {"line1": "1 33911U 93036DQ  25347.67775139  .00015285  00000+0  22738-2 0  9998", "line2": "2 33911  74.0904 160.0265 0014148  99.4996  26.2897 14.74887314886583"}}, "geometry": {"type": "Point", "coordinates": [170.07088185926042, 35.77571064451588]}}, {"type": "Feature", "properties": {"norad_id": 33912, "name": "COSMOS 2251 DEB", "group": "cosmos-2251-debris", "lat": 47.61364426837904, "lon": -12.080638743502943, "alt_km": 720.5971409832719, "timestamp": "2025-12-14T14:39:29.762090+00:00", "meta": {"OBJECT_NAME": "COSMOS 2251 DEB", "OBJECT_ID": "1993-036DR", "EPOCH": "2025-12-13T23:43:57.676800", "MEAN_MOTION": 14.51904497, "ECCENTRICITY": 0.0011438, "INCLINATION": 74.0336, "RA_OF_ASC_NODE": 187.372, "ARG_OF_PERICENTER": 266.303, "MEAN_ANOMALY": 214.2642, "EPHEMERIS_TYPE": 0, "CLASSIFICATION_TYPE": "U", "NORAD_CAT_ID": 33912, "ELEMENT_SET_NO": 999, "REV_AT_EPOCH": 88451, "BSTAR": 0.00087715447, "MEAN_MOTION_DOT": 3.513e-05, "MEAN_MOTION_DDOT": 0}, "tle": {"line1": "1 33912U 93036DR  25347.98886200  .00003513  00000+0  87715-3 0  9993", "line2": "2 33912  74.0336 187.3720 0011438 266.3030 214.2642 14.51904497884519"}}, "geometry": {"type": "Point", "coordinates": [-12.080638743502943, 47.61364426837904]}}, {"type": "Feature", "properties": {"norad_id": 33913, "name": "COSMOS 2251 DEB", "group": "cosmos-2251-debris", "lat": -11.644598834169631, "lon": 3.522528631755974, "alt_km": 734.6081484913502, "timestamp": "2025-12-14T14:39:29.762100+00:00", "meta": {"OBJECT_NAME": "COSMOS 2251 DEB", "OBJECT_ID": "1993-036DS", "EPOCH": "2025-12-13T23:23:44.932704", "MEAN_MOTION": 14.48492744, "ECCENTRICITY": 0.00481684, "INCLINATION": 74.0331, "RA_OF_ASC_NODE": 181.331, "ARG_OF_PERICENTER": 283.6831, "MEAN_ANOMALY": 194.0848, "EPHEMERIS_TYPE": 0, "CLASSIFICATION_TYPE": "U", "NORAD_CAT_ID": 33913, "ELEMENT_SET_NO": 999, "REV_AT_EPOCH": 88475, "BSTAR": 0.00068681874, "MEAN_MOTION_DOT": 2.587e-05, "MEAN_MOTION_DDOT": 0}, "tle": {"line1": "1 33913U 93036DS  25347.97482561  .00002587  00000+0  68682-3 0  9997", "line2": "2 33913  74.0331 181.3310 0048168 283.6831 194.0848 14.48492744884757"}}, "geometry": {"type": "Point", "coordinates": [3.522528631755974, -11.644598834169631]}}, {"type": "Feature", "properties": {"norad_id": 33914, "name": "COSMOS 2251 DEB", "group": "cosmos-2251-debris", "lat": 0.7385129005518665, "lon": 12.222813025526072, "alt_km": 1078.54465874789, "timestamp": "2025-12-14T14:39:29.762110+00:00", "meta": {"OBJECT_NAME": "COSMOS 2251 DEB", "OBJECT_ID": "1993-036DT", "EPOCH": "2025-12-13T12:56:53.327904", "MEAN_MOTION": 13.71985759, "ECCENTRICITY": 0.03011178, "INCLINATION": 74.0914, "RA_OF_ASC_NODE": 13.7769, "ARG_OF_PERICENTER": 116.621, "MEAN_ANOMALY": 358.3694, "EPHEMERIS_TYPE": 0, "CLASSIFICATION_TYPE": "U", "NORAD_CAT_ID": 33914, "ELEMENT_SET_NO": 999, "REV_AT_EPOCH": 84092, "BSTAR": 0.00046234527, "MEAN_MOTION_DOT": 5.6e-06, "MEAN_MOTION_DDOT": 0}, "tle": {"line1": "1 33914U 93036DT  25347.53950611  .00000560  00000+0  46235-3 0  9995", "line2": "2 33914  74.0914  13.7769 0301117 116.6210 358.3694 13.71985759840926"}}, "geometry": {"type": "Point", "coordinates": [12.222813025526072, 0.7385129005518665]}}, {"type": "Feature", "properties": {"norad_id": 33915, "name": "COSMOS 2251 DEB", "group": "cosmos-2251-debris", "lat": -10.979816361938514, "lon": -146.13878240565342, "alt_km": 750.7166686076262, "timestamp": "2025-12-14T14:39:29.762120+00:00", "meta": {"OBJECT_NAME": "COSMOS 2251 DEB", "OBJECT_ID": "1993-036DU", "EPOCH": "2025-12-13T13:22:33.030336", "MEAN_MOTION": 14.35085575, "ECCENTRICITY": 0.01043659, "INCLINATION": 74.0435, "RA_OF_ASC_NODE": 32.6089, "ARG_OF_PERICENTER": 124.9505, "MEAN_ANOMALY": 25.066, "EPHEMERIS_TYPE": 0, "CLASSIFICATION_TYPE": "U", "NORAD_CAT_ID": 33915, "ELEMENT_SET_NO": 999, "REV_AT_EPOCH": 87769, "BSTAR": 0.00052465262, "MEAN_MOTION_DOT": 1.566e-05, "MEAN_MOTION_DDOT": 0}, "tle": {"line1": "1 33915U 93036DU  25347.55732674  .00001566  00000+0  52465-3 0  9994", "line2": "2 33915  74.0435  32.6089 0104365 124.9505  25.0660 14.35085575877698"}}, "geometry": {"type": "Point", "coordinates": [-146.13878240565342, -10.979816361938514]}}, {"type": "Feature", "properties": {"norad_id": 33916, "name": "COSMOS 2251 DEB", "group": "cosmos-2251-debris", "lat": -64.34607381949199, "lon": -105.94885495168612, "alt_km": 825.1582641766745, "timestamp": "2025-12-14T14:39:29.762130+00:00", "meta": {"OBJECT_NAME": "COSMOS 2251 DEB", "OBJECT_ID": "1993-036DV", "EPOCH": "2025-12-13T20:30:05.154912", "MEAN_MOTION": 13.68615907, "ECCENTRICITY": 0.03252919, "INCLINATION": 74.0527, "RA_OF_ASC_NODE": 38.7574, "ARG_OF_PERICENTER": 210.6599, "MEAN_ANOMALY": 270.5213, "EPHEMERIS_TYPE": 0, "CLASSIFICATION_TYPE": "U", "NORAD_CAT_ID": 33916, "ELEMENT_SET_NO": 999, "REV_AT_EPOCH": 83906, "BSTAR": 0.00060926802, "MEAN_MOTION_DOT": 7.34e-06, "MEAN_MOTION_DDOT": 0}, "tle": {"line1": "1 33916U 93036DV  25347.85422633  .00000734  00000+0  60927-3 0  9997", "line2": "2 33916  74.0527  38.7574 0325291 210.6599 270.5213 13.68615907839069"}}, "geometry": {"type": "Point", "coordinates": [-105.94885495168612, -64.34607381949199]}}]}